STARLINK-36423          
1 67448U 26008D   26030.50003471 -.01329023  00000+0 -85479-2 0  9992
2 67448  43.0007  65.2570 0001427 279.4909  14.9782 15.77838894  3659
STARLINK-36519          
1 67449U 26008E   26030.50003471 -.01332550  00000+0 -86170-2 0  9991
2 67449  43.0006  65.2511 0001599 273.3357  23.4623 15.77724782  3653
STARLINK-36525          
1 67450U 26008F   26030.50003471 -.01349754  00000+0 -88017-2 0  9999
2 67450  43.0006  65.2447 0001621 271.7256  27.5220 15.77573163  3652
STARLINK-36511          
1 67451U 26008G   26030.50003471 -.01363125  00000+0 -89682-2 0  9997
2 67451  43.0006  65.2392 0001650 280.4392  21.2617 15.77402710  3652
STARLINK-36524          
1 67452U 26008H   26030.50003471 -.01380180  00000+0 -91418-2 0  9998
2 67452  43.0004  65.2328 0001650 277.3306  26.6423 15.77287071  3655
STARLINK-36518          
1 67453U 26008J   26030.50003471 -.01618070  00000+0 -11075-1 0  9991
2 67453  42.9998  64.8586 0001309 289.1676 161.3203 15.76550192  3670
STARLINK-36517          
1 67454U 26008K   26030.50003471 -.01394315  00000+0 -93250-2 0  9991
2 67454  43.0005  65.2264 0001498 273.7707  32.6139 15.77102750  3675
STARLINK-36516          
1 67455U 26008L   26030.50003471 -.01319794  00000+0 -88758-2 0  9997
2 67455  43.0005  65.2114 0001601 271.6490  41.0526 15.76829805  3650
STARLINK-36493          
1 67456U 26008M   26030.50003471 -.01402192  00000+0 -93922-2 0  9992
2 67456  43.0006  65.2219 0001636 279.7006  28.6631 15.77082613  3655
STARLINK-36529          
1 67457U 26008N   26030.50003471 -.01305970  00000+0 -87355-2 0  9992
2 67457  43.0005  65.2161 0001533 271.1371  39.4271 15.76923586  3650
STARLINK-36528          
1 67458U 26008P   26030.50003471 -.01398693  00000+0 -95161-2 0  9991
2 67458  43.0007  65.2059 0001208 277.2688  37.6114 15.76733191  3675
STARLINK-36546          
1 67459U 26008Q   26030.50003471 -.01400514  00000+0 -96124-2 0  9998
2 67459  43.0006  65.1995 0001585 275.2313  41.9397 15.76537128  3655
