CCSDS_OMM_VERS = 2.0
CREATION_DATE  = 
ORIGINATOR     = 

OBJECT_NAME    = STARLINK-36423
OBJECT_ID      = 2026-008D
CENTER_NAME    = EARTH
REF_FRAME      = TEME
TIME_SYSTEM    = UTC
MEAN_ELEMENT_THEORY = SGP/SGP4

EPOCH          = 2026-01-30T12:00:02.998944
MEAN_MOTION    = 15.77838894
ECCENTRICITY   = .0001427
INCLINATION    = 43.0007
RA_OF_ASC_NODE = 65.2570
ARG_OF_PERICENTER = 279.4909
MEAN_ANOMALY   = 14.9782

EPHEMERIS_TYPE = 0
CLASSIFICATION_TYPE = U
NORAD_CAT_ID   = 67448
ELEMENT_SET_NO = 999
REV_AT_EPOCH   = 365
BSTAR          = -.85479E-2
MEAN_MOTION_DOT = -.1329023E-1
MEAN_MOTION_DDOT = 0

CCSDS_OMM_VERS = 2.0
CREATION_DATE  = 
ORIGINATOR     = 

OBJECT_NAME    = STARLINK-36519
OBJECT_ID      = 2026-008E
CENTER_NAME    = EARTH
REF_FRAME      = TEME
TIME_SYSTEM    = UTC
MEAN_ELEMENT_THEORY = SGP/SGP4

EPOCH          = 2026-01-30T12:00:02.998944
MEAN_MOTION    = 15.77724782
ECCENTRICITY   = .0001599
INCLINATION    = 43.0006
RA_OF_ASC_NODE = 65.2511
ARG_OF_PERICENTER = 273.3357
MEAN_ANOMALY   = 23.4623

EPHEMERIS_TYPE = 0
CLASSIFICATION_TYPE = U
NORAD_CAT_ID   = 67449
ELEMENT_SET_NO = 999
REV_AT_EPOCH   = 365
BSTAR          = -.8617E-2
MEAN_MOTION_DOT = -.133255E-1
MEAN_MOTION_DDOT = 0

CCSDS_OMM_VERS = 2.0
CREATION_DATE  = 
ORIGINATOR     = 

OBJECT_NAME    = STARLINK-36525
OBJECT_ID      = 2026-008F
CENTER_NAME    = EARTH
REF_FRAME      = TEME
TIME_SYSTEM    = UTC
MEAN_ELEMENT_THEORY = SGP/SGP4

EPOCH          = 2026-01-30T12:00:02.998944
MEAN_MOTION    = 15.77573163
ECCENTRICITY   = .0001621
INCLINATION    = 43.0006
RA_OF_ASC_NODE = 65.2447
ARG_OF_PERICENTER = 271.7256
MEAN_ANOMALY   = 27.5220

EPHEMERIS_TYPE = 0
CLASSIFICATION_TYPE = U
NORAD_CAT_ID   = 67450
ELEMENT_SET_NO = 999
REV_AT_EPOCH   = 365
BSTAR          = -.88017E-2
MEAN_MOTION_DOT = -.1349754E-1
MEAN_MOTION_DDOT = 0

CCSDS_OMM_VERS = 2.0
CREATION_DATE  = 
ORIGINATOR     = 

OBJECT_NAME    = STARLINK-36511
OBJECT_ID      = 2026-008G
CENTER_NAME    = EARTH
REF_FRAME      = TEME
TIME_SYSTEM    = UTC
MEAN_ELEMENT_THEORY = SGP/SGP4

EPOCH          = 2026-01-30T12:00:02.998944
MEAN_MOTION    = 15.77402710
ECCENTRICITY   = .000165
INCLINATION    = 43.0006
RA_OF_ASC_NODE = 65.2392
ARG_OF_PERICENTER = 280.4392
MEAN_ANOMALY   = 21.2617

EPHEMERIS_TYPE = 0
CLASSIFICATION_TYPE = U
NORAD_CAT_ID   = 67451
ELEMENT_SET_NO = 999
REV_AT_EPOCH   = 365
BSTAR          = -.89682E-2
MEAN_MOTION_DOT = -.1363125E-1
MEAN_MOTION_DDOT = 0

CCSDS_OMM_VERS = 2.0
CREATION_DATE  = 
ORIGINATOR     = 

OBJECT_NAME    = STARLINK-36524
OBJECT_ID      = 2026-008H
CENTER_NAME    = EARTH
REF_FRAME      = TEME
TIME_SYSTEM    = UTC
MEAN_ELEMENT_THEORY = SGP/SGP4

EPOCH          = 2026-01-30T12:00:02.998944
MEAN_MOTION    = 15.77287071
ECCENTRICITY   = .000165
INCLINATION    = 43.0004
RA_OF_ASC_NODE = 65.2328
ARG_OF_PERICENTER = 277.3306
MEAN_ANOMALY   = 26.6423

EPHEMERIS_TYPE = 0
CLASSIFICATION_TYPE = U
NORAD_CAT_ID   = 67452
ELEMENT_SET_NO = 999
REV_AT_EPOCH   = 365
BSTAR          = -.91418E-2
MEAN_MOTION_DOT = -.138018E-1
MEAN_MOTION_DDOT = 0

CCSDS_OMM_VERS = 2.0
CREATION_DATE  = 
ORIGINATOR     = 

OBJECT_NAME    = STARLINK-36518
OBJECT_ID      = 2026-008J
CENTER_NAME    = EARTH
REF_FRAME      = TEME
TIME_SYSTEM    = UTC
MEAN_ELEMENT_THEORY = SGP/SGP4

EPOCH          = 2026-01-30T12:00:02.998944
MEAN_MOTION    = 15.76550192
ECCENTRICITY   = .0001309
INCLINATION    = 42.9998
RA_OF_ASC_NODE = 64.8586
ARG_OF_PERICENTER = 289.1676
MEAN_ANOMALY   = 161.3203

EPHEMERIS_TYPE = 0
CLASSIFICATION_TYPE = U
NORAD_CAT_ID   = 67453
ELEMENT_SET_NO = 999
REV_AT_EPOCH   = 367
BSTAR          = -.11075E-1
MEAN_MOTION_DOT = -.161807E-1
MEAN_MOTION_DDOT = 0

CCSDS_OMM_VERS = 2.0
CREATION_DATE  = 
ORIGINATOR     = 

OBJECT_NAME    = STARLINK-36517
OBJECT_ID      = 2026-008K
CENTER_NAME    = EARTH
REF_FRAME      = TEME
TIME_SYSTEM    = UTC
MEAN_ELEMENT_THEORY = SGP/SGP4

EPOCH          = 2026-01-30T12:00:02.998944
MEAN_MOTION    = 15.77102750
ECCENTRICITY   = .0001498
INCLINATION    = 43.0005
RA_OF_ASC_NODE = 65.2264
ARG_OF_PERICENTER = 273.7707
MEAN_ANOMALY   = 32.6139

EPHEMERIS_TYPE = 0
CLASSIFICATION_TYPE = U
NORAD_CAT_ID   = 67454
ELEMENT_SET_NO = 999
REV_AT_EPOCH   = 367
BSTAR          = -.9325E-2
MEAN_MOTION_DOT = -.1394315E-1
MEAN_MOTION_DDOT = 0

CCSDS_OMM_VERS = 2.0
CREATION_DATE  = 
ORIGINATOR     = 

OBJECT_NAME    = STARLINK-36516
OBJECT_ID      = 2026-008L
CENTER_NAME    = EARTH
REF_FRAME      = TEME
TIME_SYSTEM    = UTC
MEAN_ELEMENT_THEORY = SGP/SGP4

EPOCH          = 2026-01-30T12:00:02.998944
MEAN_MOTION    = 15.76829805
ECCENTRICITY   = .0001601
INCLINATION    = 43.0005
RA_OF_ASC_NODE = 65.2114
ARG_OF_PERICENTER = 271.6490
MEAN_ANOMALY   = 41.0526

EPHEMERIS_TYPE = 0
CLASSIFICATION_TYPE = U
NORAD_CAT_ID   = 67455
ELEMENT_SET_NO = 999
REV_AT_EPOCH   = 365
BSTAR          = -.88758E-2
MEAN_MOTION_DOT = -.1319794E-1
MEAN_MOTION_DDOT = 0

CCSDS_OMM_VERS = 2.0
CREATION_DATE  = 
ORIGINATOR     = 

OBJECT_NAME    = STARLINK-36493
OBJECT_ID      = 2026-008M
CENTER_NAME    = EARTH
REF_FRAME      = TEME
TIME_SYSTEM    = UTC
MEAN_ELEMENT_THEORY = SGP/SGP4

EPOCH          = 2026-01-30T12:00:02.998944
MEAN_MOTION    = 15.77082613
ECCENTRICITY   = .0001636
INCLINATION    = 43.0006
RA_OF_ASC_NODE = 65.2219
ARG_OF_PERICENTER = 279.7006
MEAN_ANOMALY   = 28.6631

EPHEMERIS_TYPE = 0
CLASSIFICATION_TYPE = U
NORAD_CAT_ID   = 67456
ELEMENT_SET_NO = 999
REV_AT_EPOCH   = 365
BSTAR          = -.93922E-2
MEAN_MOTION_DOT = -.1402192E-1
MEAN_MOTION_DDOT = 0

CCSDS_OMM_VERS = 2.0
CREATION_DATE  = 
ORIGINATOR     = 

OBJECT_NAME    = STARLINK-36529
OBJECT_ID      = 2026-008N
CENTER_NAME    = EARTH
REF_FRAME      = TEME
TIME_SYSTEM    = UTC
MEAN_ELEMENT_THEORY = SGP/SGP4

EPOCH          = 2026-01-30T12:00:02.998944
MEAN_MOTION    = 15.76923586
ECCENTRICITY   = .0001533
INCLINATION    = 43.0005
RA_OF_ASC_NODE = 65.2161
ARG_OF_PERICENTER = 271.1371
MEAN_ANOMALY   = 39.4271

EPHEMERIS_TYPE = 0
CLASSIFICATION_TYPE = U
NORAD_CAT_ID   = 67457
ELEMENT_SET_NO = 999
REV_AT_EPOCH   = 365
BSTAR          = -.87355E-2
MEAN_MOTION_DOT = -.130597E-1
MEAN_MOTION_DDOT = 0

CCSDS_OMM_VERS = 2.0
CREATION_DATE  = 
ORIGINATOR     = 

OBJECT_NAME    = STARLINK-36528
OBJECT_ID      = 2026-008P
CENTER_NAME    = EARTH
REF_FRAME      = TEME
TIME_SYSTEM    = UTC
MEAN_ELEMENT_THEORY = SGP/SGP4

EPOCH          = 2026-01-30T12:00:02.998944
MEAN_MOTION    = 15.76733191
ECCENTRICITY   = .0001208
INCLINATION    = 43.0007
RA_OF_ASC_NODE = 65.2059
ARG_OF_PERICENTER = 277.2688
MEAN_ANOMALY   = 37.6114

EPHEMERIS_TYPE = 0
CLASSIFICATION_TYPE = U
NORAD_CAT_ID   = 67458
ELEMENT_SET_NO = 999
REV_AT_EPOCH   = 367
BSTAR          = -.95161E-2
MEAN_MOTION_DOT = -.1398693E-1
MEAN_MOTION_DDOT = 0

CCSDS_OMM_VERS = 2.0
CREATION_DATE  = 
ORIGINATOR     = 

OBJECT_NAME    = STARLINK-36546
OBJECT_ID      = 2026-008Q
CENTER_NAME    = EARTH
REF_FRAME      = TEME
TIME_SYSTEM    = UTC
MEAN_ELEMENT_THEORY = SGP/SGP4

EPOCH          = 2026-01-30T12:00:02.998944
MEAN_MOTION    = 15.76537128
ECCENTRICITY   = .0001585
INCLINATION    = 43.0006
RA_OF_ASC_NODE = 65.1995
ARG_OF_PERICENTER = 275.2313
MEAN_ANOMALY   = 41.9397

EPHEMERIS_TYPE = 0
CLASSIFICATION_TYPE = U
NORAD_CAT_ID   = 67459
ELEMENT_SET_NO = 999
REV_AT_EPOCH   = 365
BSTAR          = -.96124E-2
MEAN_MOTION_DOT = -.1400514E-1
MEAN_MOTION_DDOT = 0

